ORBCOMM FM20            
1 25416U 98046D   24116.76334109  .00003159  00000+0  11445-2 0  9996
2 25416  44.9951 354.9380 0000674 338.9860  21.0960 14.35149772344257
ORBCOMM FM16            
1 25417U 98046E   24116.87111206  .00004229  00000+0  14865-2 0  9998
2 25417  44.9953 350.3088 0004039   1.5154 358.5705 14.36110414344205
ORBCOMM FM15            
1 25418U 98046F   24116.75532638  .00003513  00000+0  12497-2 0  9996
2 25418  44.9982 354.8806 0003707   1.6368 358.4491 14.35836899344194
ORBCOMM FM14            
1 25419U 98046G   24116.11628573  .00004345  00000+0  15296-2 0  9995
2 25419  44.9974 357.0356 0002710 348.2824 168.4400 14.35992829344051
ORBCOMM FM13            
1 25420U 98046H   24116.75052140  .00003169  00000+0  11446-2 0  9994
2 25420  44.9982 358.8273 0004748 344.1441  15.9257 14.35292634343212
ORBCOMM FM21            
1 25475U 98053A   24116.28284390  .00003094  00000+0  11200-2 0  9999
2 25475  45.0073  85.3299 0002458 301.8794  58.1814 14.35230098337163
ORBCOMM FM22            
1 25476U 98053B   24116.26599998  .00003526  00000+0  12565-2 0  9996
2 25476  45.0070  82.7570 0003983 294.4498  65.5933 14.35745959337156
ORBCOMM FM23            
1 25477U 98053C   24116.31153412  .00003726  00000+0  13376-2 0  9993
2 25477  45.0072  87.6265 0003413 296.4111  63.6386 14.35269954337311
